TRANSPORTER-12 OBJECT BT
1 62674U 25009BT  26068.71416991  .00013824  00000+0  51029-3 0  9998
2 62674  97.4094 151.5992 0003682 313.5044  46.5889 15.27872239121360
STARLINK-36521          
1 67507U 26012Q   26068.08315324  .00028981  00000+0  10586-2 0  9993
2 67507  43.0034 317.4250 0001963 262.5410  97.5219 15.27576759  7679
